[{"OBJECT_NAME":"STARLINK-31704","OBJECT_ID":"2024-076Y","EPOCH":"2026-03-09T22:00:01.999584","MEAN_MOTION":15.30892355,"ECCENTRICITY":0.00079744,"INCLINATION":42.9978,"RA_OF_ASC_NODE":323.2923,"ARG_OF_PERICENTER":240.5046,"MEAN_ANOMALY":200.4144,"EPHEMERIS_TYPE":0,"CLASSIFICATION_TYPE":"U","NORAD_CAT_ID":59586,"ELEMENT_SET_NO":999,"REV_AT_EPOCH":581,"BSTAR":0.0024766131,"MEAN_MOTION_DOT":0.00076042,"MEAN_MOTION_DDOT":0},{"OBJECT_NAME":"STARLINK-35831","OBJECT_ID":"2025-254AC","EPOCH":"2026-03-09T18:09:17.534016","MEAN_MOTION":15.30197857,"ECCENTRICITY":8.5e-5,"INCLINATION":53.1586,"RA_OF_ASC_NODE":229.4159,"ARG_OF_PERICENTER":101.3463,"MEAN_ANOMALY":258.7633,"EPHEMERIS_TYPE":0,"CLASSIFICATION_TYPE":"U","NORAD_CAT_ID":66374,"ELEMENT_SET_NO":999,"REV_AT_EPOCH":1902,"BSTAR":0.00067359825,"MEAN_MOTION_DOT":0.00019642,"MEAN_MOTION_DDOT":0}]
